{
    "links": {
        "self": "http://www.neowsapp.com/rest/v1/neo/3292018?api_key=iIulBulltgU6a56xZRHN4H3l9WmuAYTsLGpBGhQ2"
    },
    "id": "3292018",
    "neo_reference_id": "3292018",
    "name": "(2005 TD)",
    "designation": "2005 TD",
    "nasa_jpl_url": "http://ssd.jpl.nasa.gov/sbdb.cgi?sstr=3292018",
    "absolute_magnitude_h": 23.5,
    "estimated_diameter": {
        "kilometers": {
            "estimated_diameter_min": 0.0530340723,
            "estimated_diameter_max": 0.1185877909
        },
        "meters": {
            "estimated_diameter_min": 53.0340723319,
            "estimated_diameter_max": 118.5877908577
        },
        "miles": {
            "estimated_diameter_min": 0.0329538346,
            "estimated_diameter_max": 0.0736870142
        },
        "feet": {
            "estimated_diameter_min": 173.9963058693,
            "estimated_diameter_max": 389.0675677576
        }
    },
    "is_potentially_hazardous_asteroid": false,
    "close_approach_data": [
        {
            "close_approach_date": "2005-10-07",
            "close_approach_date_full": "2005-Oct-07 04:15",
            "epoch_date_close_approach": 1128658500000,
            "relative_velocity": {
                "kilometers_per_second": "14.557607428",
                "kilometers_per_hour": "52407.3867408018",
                "miles_per_hour": "32563.9120556943"
            },
            "miss_distance": {
                "astronomical": "0.0560661335",
                "lunar": "21.8097259315",
                "kilometers": "8387374.150735645",
                "miles": "5211672.628796101"
            },
            "orbiting_body": "Earth"
        },
        {
            "close_approach_date": "2006-02-19",
            "close_approach_date_full": "2006-Feb-19 01:54",
            "epoch_date_close_approach": 1140314040000,
            "relative_velocity": {
                "kilometers_per_second": "11.8131451552",
                "kilometers_per_hour": "42527.3225587826",
                "miles_per_hour": "26424.8243977058"
            },
            "miss_distance": {
                "astronomical": "0.4440958994",
                "lunar": "172.7533048666",
                "kilometers": "66435800.625974278",
                "miles": "41281292.2700219164"
            },
            "orbiting_body": "Earth"
        },
        {
            "close_approach_date": "2131-10-10",
            "close_approach_date_full": "2131-Oct-10 19:57",
            "epoch_date_close_approach": 5105102220000,
            "relative_velocity": {
                "kilometers_per_second": "14.068730015",
                "kilometers_per_hour": "50647.4280539208",
                "miles_per_hour": "31470.3421705043"
            },
            "miss_distance": {
                "astronomical": "0.0657071458",
                "lunar": "25.5600797162",
                "kilometers": "9829649.055459446",
                "miles": "6107860.6977985148"
            },
            "orbiting_body": "Earth"
        }
    ],
    "orbital_data": {
        "orbit_id": "10",
        "orbit_determination_date": "2017-04-06 09:10:23",
        "first_observation_date": "2005-10-01",
        "last_observation_date": "2005-10-15",
        "data_arc_in_days": 14,
        "observations_used": 45,
        "orbit_uncertainty": "8",
        "minimum_orbit_intersection": ".054941",
        "jupiter_tisserand_invariant": "4.520",
        "epoch_osculation": "2453647.5",
        "eccentricity": ".3214083825971187",
        "semi_major_axis": "1.439730946819567",
        "inclination": "24.54812034132029",
        "ascending_node_longitude": "11.83848836551086",
        "orbital_period": "630.9870362165985",
        "perihelion_distance": ".9769893518272718",
        "perihelion_argument": "47.27793232935854",
        "aphelion_distance": "1.902472541811863",
        "perihelion_time": "2453690.285265865991",
        "mean_anomaly": "335.5895211348376",
        "mean_motion": ".5705347009323073",
        "equinox": "J2000",
        "orbit_class": {
            "orbit_class_type": "APO",
            "orbit_class_description": "Near-Earth asteroid orbits which cross the Earth’s orbit similar to that of 1862 Apollo",
            "orbit_class_range": "a (semi-major axis) > 1.0 AU; q (perihelion) < 1.017 AU"
        }
    },
    "is_sentry_object": false
}